ONEWEB-0540             
1 54645U 22166D   25336.25981179  .00000069  00000+0  13577-3 0  9992
2 54645  87.9205 283.2862 0001779  84.4851 275.6486 13.21823680145510
ONEWEB-0542             
1 54646U 22166E   25336.26296842  .00000095  00000+0  19808-3 0  9992
2 54646  87.9205 283.2443 0001861  91.6213 268.5134 13.21823831145520
ONEWEB-0545             
1 54647U 22166F   25336.22840928 -.00000042  00000+0 -13207-3 0  9990
2 54647  87.9207 283.2713 0001892  91.6427 268.4924 13.21817940145489
ONEWEB-0580             
1 54648U 22166G   25336.12640160 -.00000038  00000+0 -12263-3 0  9992
2 54648  87.9207 283.2905 0001684  89.9207 270.2120 13.21824027145515
ONEWEB-0582             
1 54649U 22166H   25336.24487754  .00000009  00000+0 -10064-4 0  9999
2 54649  87.9207 283.2600 0001766  95.6180 264.5156 13.21824105145504
ONEWEB-0583             
1 54650U 22166J   25336.25639567  .00000007  00000+0 -14618-4 0  9990
2 54650  87.9203 283.2827 0001874  83.2931 276.8416 13.21824072145519
ONEWEB-0584             
1 54651U 22166K   25335.89764815 -.00000307  00000+0 -77408-3 0  9994
2 54651  87.9207 283.3401 0001624  89.4995 270.6325 13.21825245145451
ONEWEB-0585             
1 54652U 22166L   25336.22513848 -.00000019  00000+0 -76763-4 0  9995
2 54652  87.9206 283.2597 0001807  74.8132 285.3202 13.21826483145508
ONEWEB-0586             
1 54653U 22166M   25336.23830596 -.00000009  00000+0 -52340-4 0  9993
2 54653  87.9206 283.2825 0001832  85.0432 275.0911 13.21824071145502
ONEWEB-0587             
1 54654U 22166N   25336.24817580  .00000041  00000+0  67544-4 0  9999
2 54654  87.9216 283.2354 0001897  67.0028 293.1306 13.21824585145669
ONEWEB-0589             
1 54655U 22166P   25336.23501569  .00000051  00000+0  93026-4 0  9991
2 54655  87.9207 283.2739 0001537 107.5488 252.5814 13.21826285145525
ONEWEB-0590             
1 54656U 22166Q   25336.25954600  .00000051  00000+0  92075-4 0  9995
2 54656  87.9208 283.2456 0001437  72.0131 288.1160 13.21824292145517
ONEWEB-0591             
1 54657U 22166R   25336.27119541 -.00000216  00000+0 -55539-3 0  9993
2 54657  87.9206 283.2667 0001715  80.6405 279.4923 13.21825448145545
ONEWEB-0592             
1 54658U 22166S   25336.27449347  .00000133  00000+0  29071-3 0  9992
2 54658  87.9217 283.2282 0001736  80.8622 279.2708 13.21824249145421
ONEWEB-0593             
1 54659U 22166T   25336.22184824  .00000031  00000+0  44697-4 0  9993
2 54659  87.9206 283.2666 0001904  83.0104 277.1247 13.21825287145522
ONEWEB-0594             
1 54660U 22166U   25336.24157815  .00000011  00000+0 -54534-5 0  9998
2 54660  87.9206 283.2806 0001891  78.5442 281.5905 13.21823435145544
ONEWEB-0595             
1 54661U 22166V   25336.21853610  .00000009  00000+0 -90283-5 0  9990
2 54661  87.9205 283.2583 0001782  72.9940 287.1389 13.21827368145510
