[{"OBJECT_NAME":"ONEWEB-0540","OBJECT_ID":"2022-166D","EPOCH":"2025-12-02T06:14:07.738656","MEAN_MOTION":13.2182368,"ECCENTRICITY":0.00017798,"INCLINATION":87.9205,"RA_OF_ASC_NODE":283.2862,"ARG_OF_PERICENTER":84.4851,"MEAN_ANOMALY":275.6486,"EPHEMERIS_TYPE":0,"CLASSIFICATION_TYPE":"U","NORAD_CAT_ID":54645,"ELEMENT_SET_NO":999,"REV_AT_EPOCH":14551,"BSTAR":0.00013576988,"MEAN_MOTION_DOT":6.9e-7,"MEAN_MOTION_DDOT":0},{"OBJECT_NAME":"ONEWEB-0542","OBJECT_ID":"2022-166E","EPOCH":"2025-12-02T06:18:40.471488","MEAN_MOTION":13.21823831,"ECCENTRICITY":0.00018619,"INCLINATION":87.9205,"RA_OF_ASC_NODE":283.2443,"ARG_OF_PERICENTER":91.6213,"MEAN_ANOMALY":268.5134,"EPHEMERIS_TYPE":0,"CLASSIFICATION_TYPE":"U","NORAD_CAT_ID":54646,"ELEMENT_SET_NO":999,"REV_AT_EPOCH":14552,"BSTAR":0.0001980799,"MEAN_MOTION_DOT":9.5e-7,"MEAN_MOTION_DDOT":0},{"OBJECT_NAME":"ONEWEB-0545","OBJECT_ID":"2022-166F","EPOCH":"2025-12-02T05:28:54.561792","MEAN_MOTION":13.2181794,"ECCENTRICITY":0.00018923,"INCLINATION":87.9207,"RA_OF_ASC_NODE":283.2713,"ARG_OF_PERICENTER":91.6427,"MEAN_ANOMALY":268.4924,"EPHEMERIS_TYPE":0,"CLASSIFICATION_TYPE":"U","NORAD_CAT_ID":54647,"ELEMENT_SET_NO":999,"REV_AT_EPOCH":14548,"BSTAR":-0.00013206792,"MEAN_MOTION_DOT":-4.2e-7,"MEAN_MOTION_DDOT":0},{"OBJECT_NAME":"ONEWEB-0580","OBJECT_ID":"2022-166G","EPOCH":"2025-12-02T03:02:01.098240","MEAN_MOTION":13.21824027,"ECCENTRICITY":0.00016846,"INCLINATION":87.9207,"RA_OF_ASC_NODE":283.2905,"ARG_OF_PERICENTER":89.9207,"MEAN_ANOMALY":270.212,"EPHEMERIS_TYPE":0,"CLASSIFICATION_TYPE":"U","NORAD_CAT_ID":54648,"ELEMENT_SET_NO":999,"REV_AT_EPOCH":14551,"BSTAR":-0.00012262741,"MEAN_MOTION_DOT":-3.8e-7,"MEAN_MOTION_DDOT":0},{"OBJECT_NAME":"ONEWEB-0582","OBJECT_ID":"2022-166H","EPOCH":"2025-12-02T05:52:37.419456","MEAN_MOTION":13.21824105,"ECCENTRICITY":0.00017665,"INCLINATION":87.9207,"RA_OF_ASC_NODE":283.26,"ARG_OF_PERICENTER":95.618,"MEAN_ANOMALY":264.5156,"EPHEMERIS_TYPE":0,"CLASSIFICATION_TYPE":"U","NORAD_CAT_ID":54649,"ELEMENT_SET_NO":999,"REV_AT_EPOCH":14550,"BSTAR":-1.0064214e-5,"MEAN_MOTION_DOT":9.0e-8,"MEAN_MOTION_DDOT":0},{"OBJECT_NAME":"ONEWEB-0583","OBJECT_ID":"2022-166J","EPOCH":"2025-12-02T06:09:12.585888","MEAN_MOTION":13.21824072,"ECCENTRICITY":0.00018741,"INCLINATION":87.9203,"RA_OF_ASC_NODE":283.2827,"ARG_OF_PERICENTER":83.2931,"MEAN_ANOMALY":276.8416,"EPHEMERIS_TYPE":0,"CLASSIFICATION_TYPE":"U","NORAD_CAT_ID":54650,"ELEMENT_SET_NO":999,"REV_AT_EPOCH":14551,"BSTAR":-1.4617979e-5,"MEAN_MOTION_DOT":7.0e-8,"MEAN_MOTION_DDOT":0},{"OBJECT_NAME":"ONEWEB-0584","OBJECT_ID":"2022-166K","EPOCH":"2025-12-01T21:32:36.800160","MEAN_MOTION":13.21825245,"ECCENTRICITY":0.0001624,"INCLINATION":87.9207,"RA_OF_ASC_NODE":283.3401,"ARG_OF_PERICENTER":89.4995,"MEAN_ANOMALY":270.6325,"EPHEMERIS_TYPE":0,"CLASSIFICATION_TYPE":"U","NORAD_CAT_ID":54651,"ELEMENT_SET_NO":999,"REV_AT_EPOCH":14545,"BSTAR":-0.00077408187,"MEAN_MOTION_DOT":-3.07e-6,"MEAN_MOTION_DDOT":0},{"OBJECT_NAME":"ONEWEB-0585","OBJECT_ID":"2022-166L","EPOCH":"2025-12-02T05:24:11.964672","MEAN_MOTION":13.21826483,"ECCENTRICITY":0.00018079,"INCLINATION":87.9206,"RA_OF_ASC_NODE":283.2597,"ARG_OF_PERICENTER":74.8132,"MEAN_ANOMALY":285.3202,"EPHEMERIS_TYPE":0,"CLASSIFICATION_TYPE":"U","NORAD_CAT_ID":54652,"ELEMENT_SET_NO":999,"REV_AT_EPOCH":14550,"BSTAR":-7.6763214e-5,"MEAN_MOTION_DOT":-1.9e-7,"MEAN_MOTION_DDOT":0},{"OBJECT_NAME":"ONEWEB-0586","OBJECT_ID":"2022-166M","EPOCH":"2025-12-02T05:43:09.634944","MEAN_MOTION":13.21824071,"ECCENTRICITY":0.00018325,"INCLINATION":87.9206,"RA_OF_ASC_NODE":283.2825,"ARG_OF_PERICENTER":85.0432,"MEAN_ANOMALY":275.0911,"EPHEMERIS_TYPE":0,"CLASSIFICATION_TYPE":"U","NORAD_CAT_ID":54653,"ELEMENT_SET_NO":999,"REV_AT_EPOCH":14550,"BSTAR":-5.233973e-5,"MEAN_MOTION_DOT":-9.0e-8,"MEAN_MOTION_DDOT":0},{"OBJECT_NAME":"ONEWEB-0587","OBJECT_ID":"2022-166N","EPOCH":"2025-12-02T05:57:22.389120","MEAN_MOTION":13.21824585,"ECCENTRICITY":0.00018972,"INCLINATION":87.9216,"RA_OF_ASC_NODE":283.2354,"ARG_OF_PERICENTER":67.0028,"MEAN_ANOMALY":293.1306,"EPHEMERIS_TYPE":0,"CLASSIFICATION_TYPE":"U","NORAD_CAT_ID":54654,"ELEMENT_SET_NO":999,"REV_AT_EPOCH":14566,"BSTAR":6.7544249e-5,"MEAN_MOTION_DOT":4.1e-7,"MEAN_MOTION_DDOT":0},{"OBJECT_NAME":"ONEWEB-0589","OBJECT_ID":"2022-166P","EPOCH":"2025-12-02T05:38:25.355616","MEAN_MOTION":13.21826285,"ECCENTRICITY":0.0001537,"INCLINATION":87.9207,"RA_OF_ASC_NODE":283.2739,"ARG_OF_PERICENTER":107.5488,"MEAN_ANOMALY":252.5814,"EPHEMERIS_TYPE":0,"CLASSIFICATION_TYPE":"U","NORAD_CAT_ID":54655,"ELEMENT_SET_NO":999,"REV_AT_EPOCH":14552,"BSTAR":9.3026275e-5,"MEAN_MOTION_DOT":5.1e-7,"MEAN_MOTION_DDOT":0},{"OBJECT_NAME":"ONEWEB-0590","OBJECT_ID":"2022-166Q","EPOCH":"2025-12-02T06:13:44.774400","MEAN_MOTION":13.21824292,"ECCENTRICITY":0.00014373,"INCLINATION":87.9208,"RA_OF_ASC_NODE":283.2456,"ARG_OF_PERICENTER":72.0131,"MEAN_ANOMALY":288.116,"EPHEMERIS_TYPE":0,"CLASSIFICATION_TYPE":"U","NORAD_CAT_ID":54656,"ELEMENT_SET_NO":999,"REV_AT_EPOCH":14551,"BSTAR":9.2075394e-5,"MEAN_MOTION_DOT":5.1e-7,"MEAN_MOTION_DDOT":0},{"OBJECT_NAME":"ONEWEB-0591","OBJECT_ID":"2022-166R","EPOCH":"2025-12-02T06:30:31.283424","MEAN_MOTION":13.21825448,"ECCENTRICITY":0.00017152,"INCLINATION":87.9206,"RA_OF_ASC_NODE":283.2667,"ARG_OF_PERICENTER":80.6405,"MEAN_ANOMALY":279.4923,"EPHEMERIS_TYPE":0,"CLASSIFICATION_TYPE":"U","NORAD_CAT_ID":54657,"ELEMENT_SET_NO":999,"REV_AT_EPOCH":14554,"BSTAR":-0.00055539348,"MEAN_MOTION_DOT":-2.16e-6,"MEAN_MOTION_DDOT":0},{"OBJECT_NAME":"ONEWEB-0592","OBJECT_ID":"2022-166S","EPOCH":"2025-12-02T06:35:16.235808","MEAN_MOTION":13.21824249,"ECCENTRICITY":0.00017369,"INCLINATION":87.9217,"RA_OF_ASC_NODE":283.2282,"ARG_OF_PERICENTER":80.8622,"MEAN_ANOMALY":279.2708,"EPHEMERIS_TYPE":0,"CLASSIFICATION_TYPE":"U","NORAD_CAT_ID":54658,"ELEMENT_SET_NO":999,"REV_AT_EPOCH":14542,"BSTAR":0.00029071411,"MEAN_MOTION_DOT":1.33e-6,"MEAN_MOTION_DDOT":0},{"OBJECT_NAME":"ONEWEB-0593","OBJECT_ID":"2022-166T","EPOCH":"2025-12-02T05:19:27.687936","MEAN_MOTION":13.21825287,"ECCENTRICITY":0.00019048,"INCLINATION":87.9206,"RA_OF_ASC_NODE":283.2666,"ARG_OF_PERICENTER":83.0104,"MEAN_ANOMALY":277.1247,"EPHEMERIS_TYPE":0,"CLASSIFICATION_TYPE":"U","NORAD_CAT_ID":54659,"ELEMENT_SET_NO":999,"REV_AT_EPOCH":14552,"BSTAR":4.4697172e-5,"MEAN_MOTION_DOT":3.1e-7,"MEAN_MOTION_DDOT":0},{"OBJECT_NAME":"ONEWEB-0594","OBJECT_ID":"2022-166U","EPOCH":"2025-12-02T05:47:52.352160","MEAN_MOTION":13.21823435,"ECCENTRICITY":0.00018911,"INCLINATION":87.9206,"RA_OF_ASC_NODE":283.2806,"ARG_OF_PERICENTER":78.5442,"MEAN_ANOMALY":281.5905,"EPHEMERIS_TYPE":0,"CLASSIFICATION_TYPE":"U","NORAD_CAT_ID":54660,"ELEMENT_SET_NO":999,"REV_AT_EPOCH":14554,"BSTAR":-5.45344e-6,"MEAN_MOTION_DOT":1.1e-7,"MEAN_MOTION_DDOT":0},{"OBJECT_NAME":"ONEWEB-0595","OBJECT_ID":"2022-166V","EPOCH":"2025-12-02T05:14:41.519040","MEAN_MOTION":13.21827368,"ECCENTRICITY":0.00017821,"INCLINATION":87.9205,"RA_OF_ASC_NODE":283.2583,"ARG_OF_PERICENTER":72.994,"MEAN_ANOMALY":287.1389,"EPHEMERIS_TYPE":0,"CLASSIFICATION_TYPE":"U","NORAD_CAT_ID":54661,"ELEMENT_SET_NO":999,"REV_AT_EPOCH":14551,"BSTAR":-9.028275e-6,"MEAN_MOTION_DOT":9.0e-8,"MEAN_MOTION_DDOT":0}]
